NORAD_CAT_ID,OBJECT_NAME,OBJECT_TYPE,EPOCH,MEAN_MOTION,ECCENTRICITY,INCLINATION,RA_OF_ASC_NODE,ARG_OF_PERICENTER,MEAN_ANOMALY,BSTAR,MEAN_MOTION_DOT,MEAN_MOTION_DDOT,TLE_LINE0,TLE_LINE1,TLE_LINE2,SEMIMAJOR_AXIS,PERIOD,APOGEE,PERIGEE,DECAYED
54192.0,STARLINK-5268,PAYLOAD,2024-02-14 15:00:20,15.08864994,0.0001369,53.2156,138.975,97.1873,262.9275,0.00034849,5.266e-05,0.0,0 STARLINK-5268,1 54192U 22141AM  24045.62523918  .00005266  00000-0  34849-3 0  9992,2 54192  53.2156 138.9750 0001369  97.1873 262.9275 15.08864994 72390,6917.804,95.436,540.616,538.722,0.0
54192.0,STARLINK-5268,PAYLOAD,2024-02-14 22:57:17,15.08836746,0.0001857,53.2156,137.4879,94.3612,265.7593,-5.447e-05,-1.155e-05,0.0,0 STARLINK-5268,1 54192U 22141AM  24045.95645420 -.00001155  00000-0 -54470-4 0  9999,2 54192  53.2156 137.4879 0001857  94.3612 265.7593 15.08836746 72442,6917.89,95.438,541.04,538.471,0.0
54192.0,STARLINK-5268,PAYLOAD,2024-02-15 11:40:23,15.08825533,0.0001731,53.2176,135.1114,99.3105,260.8083,-5.9686e-05,-1.237e-05,0.0,0 STARLINK-5268,1 54192U 22141AM  24046.48638394 -.00001237  00000-0 -59686-4 0  9995,2 54192  53.2176 135.1114 0001731  99.3105 260.8083 15.08825533 72525,6917.925,95.438,540.987,538.592,0.0
54192.0,STARLINK-5268,PAYLOAD,2024-02-15 13:15:46,15.08835447,0.0001187,53.2167,134.812,92.0593,268.0535,0.00011232,1.5e-05,0.0,0 STARLINK-5268,1 54192U 22141AM  24046.55262177  .00001500  00000-0  11232-3 0  9990,2 54192  53.2167 134.8120 0001187  92.0593 268.0535 15.08835447 72307,6917.894,95.438,540.58,538.938,0.0
54192.0,STARLINK-5268,PAYLOAD,2024-02-15 14:51:09,15.08838627,0.0001182,53.2153,134.5138,101.6999,258.4125,7.78e-05,9.51e-06,0.0,0 STARLINK-5268,1 54192U 22141AM  24046.61885672  .00000951  00000-0  77800-4 0  9991,2 54192  53.2153 134.5138 0001182 101.6999 258.4125 15.08838627 72547,6917.885,95.438,540.567,538.932,0.0
54192.0,STARLINK-5268,PAYLOAD,2024-02-16 13:06:32,15.08853456,0.0001404,53.2157,130.3521,94.8633,265.2519,5.0953e-05,5.23e-06,0.0,0 STARLINK-5268,1 54192U 22141AM  24047.54621093  .00000523  00000-0  50953-4 0  9994,2 54192  53.2157 130.3521 0001404  94.8633 265.2519 15.08853456 72456,6917.839,95.437,540.676,538.733,0.0
54192.0,STARLINK-5268,PAYLOAD,2024-02-16 14:41:55,15.0886036,0.0001242,53.2154,130.053,97.4172,262.6961,0.00014416,2.008e-05,0.0,0 STARLINK-5268,1 54192U 22141AM  24047.61244619  .00002008  00000-0  14416-3 0  9990,2 54192  53.2154 130.0530 0001242  97.4172 262.6961 15.08860360 72697,6917.818,95.436,540.542,538.824,0.0
54192.0,STARLINK-5268,PAYLOAD,2024-02-17 11:21:57,15.0883764,0.0001635,53.2184,126.189,111.1977,248.919,0.0001952,2.82e-05,0.0,0 STARLINK-5268,1 54192U 22141AM  24048.47358226  .00002820  00000-0  19520-3 0  9998,2 54192  53.2184 126.1890 0001635 111.1977 248.9190 15.08837640 72829,6917.888,95.438,540.884,538.622,0.0
54192.0,STARLINK-5268,PAYLOAD,2024-02-17 22:29:39,15.08838611,0.0001245,53.2141,124.1053,112.7404,247.372,8.4157e-05,1.052e-05,0.0,0 STARLINK-5268,1 54192U 22141AM  24048.93726031  .00001052  00000-0  84157-4 0  9997,2 54192  53.2141 124.1053 0001245 112.7404 247.3720 15.08838611 72663,6917.885,95.438,540.611,538.888,0.0
54192.0,STARLINK-5268,PAYLOAD,2024-02-18 11:12:44,15.08841519,0.0001587,53.2161,121.7292,92.8165,267.3009,8.7908e-05,1.111e-05,0.0,0 STARLINK-5268,1 54192U 22141AM  24049.46718292  .00001111  00000-0  87908-4 0  9999,2 54192  53.2161 121.7292 0001587  92.8165 267.3009 15.08841519 72746,6917.876,95.437,540.839,538.643,0.0
54192.0,STARLINK-5268,PAYLOAD,2024-02-18 22:20:26,15.08845432,0.0001462,53.2159,119.6468,95.2748,264.8411,4.5173e-05,4.31e-06,0.0,0 STARLINK-5268,1 54192U 22141AM  24049.93085874  .00000431  00000-0  45173-4 0  9996,2 54192  53.2159 119.6468 0001462  95.2748 264.8411 15.08845432 72815,6917.864,95.437,540.74,538.717,0.0
54192.0,STARLINK-5268,PAYLOAD,2024-02-19 11:03:31,15.08842561,0.0001649,53.2168,117.2667,105.7165,254.4009,0.00013749,1.901e-05,0.0,0 STARLINK-5268,1 54192U 22141AM  24050.46078327  .00001901  00000-0  13749-3 0  9997,2 54192  53.2168 117.2667 0001649 105.7165 254.4009 15.08842561 73120,6917.873,95.437,540.878,538.597,0.0
54192.0,STARLINK-5268,PAYLOAD,2024-02-20 04:32:46,15.08828869,0.0001672,53.217,113.9954,103.3505,256.7673,0.00023099,3.389e-05,0.0,0 STARLINK-5268,1 54192U 22141AM  24051.18943174  .00003389  00000-0  23099-3 0  9999,2 54192  53.2170 113.9954 0001672 103.3505 256.7673 15.08828869 73232,6917.914,95.438,540.936,538.623,0.0
54192.0,STARLINK-5268,PAYLOAD,2024-02-20 10:54:19,15.0883334,0.000135,53.217,112.8118,86.2416,273.873,0.00013675,1.889e-05,0.0,0 STARLINK-5268,1 54192U 22141AM  24051.45438982  .00001889  00000-0  13675-3 0  9997,2 54192  53.2170 112.8118 0001350  86.2416 273.8730 15.08833340 73048,6917.901,95.438,540.7,538.832,0.0
54192.0,STARLINK-5268,PAYLOAD,2024-02-20 20:26:37,15.08839778,0.0001327,53.2166,111.0276,90.7765,269.3379,-3.2906e-06,-3.4e-06,0.0,0 STARLINK-5268,1 54192U 22141AM  24051.85182829 -.00000340  00000-0 -32906-5 0  9990,2 54192  53.2166 111.0276 0001327  90.7765 269.3379 15.08839778 73107,6917.881,95.438,540.664,538.828,0.0
54192.0,STARLINK-5268,PAYLOAD,2024-02-21 10:45:05,15.08842005,0.0001345,53.2162,108.3485,88.956,271.1586,0.00016716,2.374e-05,0.0,0 STARLINK-5268,1 54192U 22141AM  24052.44798482  .00002374  00000-0  16716-3 0  9990,2 54192  53.2162 108.3485 0001345  88.9560 271.1586 15.08842005 73429,6917.874,95.437,540.67,538.809,0.0
54192.0,STARLINK-5268,PAYLOAD,2024-02-21 20:17:24,15.08839599,0.0001367,53.216,106.564,92.0997,268.0151,2.5523e-05,1.18e-06,0.0,0 STARLINK-5268,1 54192U 22141AM  24052.84542787  .00000118  00000-0  25523-4 0  9990,2 54192  53.2160 106.5640 0001367  92.0997 268.0151 15.08839599 73252,6917.882,95.438,540.692,538.801,0.0
54192.0,STARLINK-5268,PAYLOAD,2024-02-22 04:14:21,15.08829075,0.0001489,53.2166,105.0777,91.4256,268.6906,1.496e-05,-5e-07,0.0,0 STARLINK-5268,1 54192U 22141AM  24053.17663760 -.00000050  00000-0  14960-4 0  9991,2 54192  53.2166 105.0777 0001489  91.4256 268.6906 15.08829075 73532,6917.914,95.438,540.809,538.749,0.0
54192.0,STARLINK-5268,PAYLOAD,2024-02-22 10:35:53,15.0883102,0.0001648,53.2182,103.89,103.205,256.9126,2.7221e-05,1.45e-06,0.0,0 STARLINK-5268,1 54192U 22141AM  24053.44159665  .00000145  00000-0  27221-4 0  9993,2 54192  53.2182 103.8900 0001648 103.2050 256.9126 15.08831020 73341,6917.908,95.438,540.913,538.633,0.0
54192.0,STARLINK-5268,PAYLOAD,2024-02-22 20:08:12,15.08837295,0.000139,53.2171,102.1036,93.2276,266.8875,6.9722e-05,8.22e-06,0.0,0 STARLINK-5268,1 54192U 22141AM  24053.83903261  .00000822  00000-0  69722-4 0  9999,2 54192  53.2171 102.1036 0001390  93.2276 266.8875 15.08837295 73401,6917.889,95.438,540.715,538.792,0.0
54192.0,STARLINK-5268,PAYLOAD,2024-02-23 02:29:44,15.0884307,0.0001392,53.2174,100.9142,95.9162,264.1989,7.8299e-05,9.59e-06,0.0,0 STARLINK-5268,1 54192U 22141AM  24054.10398913  .00000959  00000-0  78299-4 0  9992,2 54192  53.2174 100.9142 0001392  95.9162 264.1989 15.08843070 73677,6917.871,95.437,540.699,538.773,0.0
54192.0,STARLINK-5268,PAYLOAD,2024-02-23 10:26:39,15.08851639,0.000136,53.217,99.427,94.5667,265.548,0.00012004,1.624e-05,0.0,0 STARLINK-5268,1 54192U 22141AM  24054.43518241  .00001624  00000-0  12004-3 0  9997,2 54192  53.2170  99.4270 0001360  94.5667 265.5480 15.08851639 73724,6917.845,95.437,540.651,538.769,0.0
54192.0,STARLINK-5268,PAYLOAD,2024-02-23 19:58:58,15.08851292,0.0001453,53.2168,97.6419,80.4517,279.6639,8.7497e-05,1.105e-05,0.0,0 STARLINK-5268,1 54192U 22141AM  24054.83262276  .00001105  00000-0  87497-4 0  9998,2 54192  53.2168  97.6419 0001453  80.4517 279.6639 15.08851292 73555,6917.846,95.437,540.716,538.706,0.0
54192.0,STARLINK-5268,PAYLOAD,2024-02-24 02:20:31,15.08837862,0.0001737,53.2168,96.4534,83.653,276.466,0.00019119,2.756e-05,0.0,0 STARLINK-5268,1 54192U 22141AM  24055.09759190  .00002756  00000-0  19119-3 0  9991,2 54192  53.2168  96.4534 0001737  83.6530 276.4660 15.08837862 73821,6917.887,95.438,540.954,538.55,0.0
54192.0,STARLINK-5268,PAYLOAD,2024-02-24 10:17:27,15.08838084,0.000131,53.2155,94.9663,81.3526,278.7615,8.6755e-05,1.093e-05,0.0,0 STARLINK-5268,1 54192U 22141AM  24055.42879141  .00001093  00000-0  86755-4 0  9991,2 54192  53.2155  94.9663 0001310  81.3526 278.7615 15.08838084 73642,6917.886,95.438,540.657,538.845,0.0
54192.0,STARLINK-5268,PAYLOAD,2024-02-24 19:49:46,15.08842722,0.0001317,53.2154,93.1822,81.0348,279.0794,0.00013346,1.837e-05,0.0,0 STARLINK-5268,1 54192U 22141AM  24055.82623028  .00001837  00000-0  13346-3 0  9997,2 54192  53.2154  93.1822 0001317  81.0348 279.0794 15.08842722 73708,6917.872,95.437,540.648,538.826,0.0
54192.0,STARLINK-5268,PAYLOAD,2024-02-25 11:43:37,15.0885066,0.0001375,53.2149,90.2079,80.3866,279.7282,0.00029966,4.486e-05,0.0,0 STARLINK-5268,1 54192U 22141AM  24056.48862701  .00004486  00000-0  29966-3 0  9991,2 54192  53.2149  90.2079 0001375  80.3866 279.7282 15.08850660 74031,6917.848,95.437,540.664,538.762,0.0
54192.0,STARLINK-5268,PAYLOAD,2024-02-25 19:40:33,15.08849874,0.0001388,53.2151,88.7202,80.2148,279.9001,0.00031011,4.652e-05,0.0,0 STARLINK-5268,1 54192U 22141AM  24056.81982770  .00004652  00000-0  31011-3 0  9996,2 54192  53.2151  88.7202 0001388  80.2148 279.9001 15.08849874 73855,6917.85,95.437,540.675,538.755,0.0
54192.0,STARLINK-5268,PAYLOAD,2024-02-26 11:34:24,15.08850502,0.0001479,53.2152,85.744,91.7357,268.3805,0.00030921,4.638e-05,0.0,0 STARLINK-5268,1 54192U 22141AM  24057.48222625  .00004638  00000-0  30921-3 0  9999,2 54192  53.2152  85.7440 0001479  91.7357 268.3805 15.08850502 74188,6917.848,95.437,540.736,538.69,0.0
54192.0,STARLINK-5268,PAYLOAD,2024-02-27 01:52:52,15.08839043,0.0001386,53.2156,83.067,96.2458,263.8692,3.211e-05,2.23e-06,0.0,0 STARLINK-5268,1 54192U 22141AM  24058.07839015  .00000223  00000-0  32110-4 0  9991,2 54192  53.2156  83.0670 0001386  96.2458 263.8692 15.08839043 74278,6917.883,95.438,540.707,538.789,0.0
